MALLIGYONG-1            
1 58400U 23179A   24011.78176112  .00008524  00000+0  37640-3 0  9991
2 58400  97.4253 260.8855 0017568  97.2442 263.0792 15.21846216  7785
